name,source,collection_date,satellite_number,classification,launch_year,launch_number,launch_piece,epoch_year,epoch_day,inclination_deg,right_ascension_deg,eccentricity,argument_of_perigee_deg,mean_anomaly_deg,mean_motion,orbital_period_minutes,approximate_altitude_km,mean_motion_derivative,mean_motion_second_derivative,drag_term,element_set_number,revolution_number,line1,line2,category
STARLINK-3629,celestrak_active,2025-07-29T17:08:40.672440,51774,U,2022,17,G,2025,210.43228372,53.217,261.3634,9.91e-05,86.8708,273.2397,15.08837023,95.43774298014425,0,-1.53e-06,0.0,8.451300000000001e-05,999,18886,1 51774U 22017G   25210.43228372 -.00000153  00000+0  84513-5 0  9992,2 51774  53.2170 261.3634 0000991  86.8708 273.2397 15.08837023188866,important
STARLINK-3620,celestrak_active,2025-07-29T17:08:40.672445,51775,U,2022,17,H,2025,210.44332713,53.2169,261.3144,7.41e-05,65.8853,294.2216,15.08837837,95.43769149262128,0,8.5e-07,0.0,0.00023396,999,18890,1 51775U 22017H   25210.44332713  .00000085  00000+0  23396-4 0  9993,2 51775  53.2169 261.3144 0000741  65.8853 294.2216 15.08837837188903,important
STARLINK-3608,celestrak_active,2025-07-29T17:08:40.672451,51776,U,2022,17,J,2025,210.36236553,53.2167,261.6772,0.0001137,67.1614,292.9498,15.08842042,95.43742551680569,0,-4.42e-06,0.0,-9.674400000000001e-05,999,18885,1 51776U 22017J   25210.36236553 -.00000442  00000+0 -96744-5 0  9997,2 51776  53.2167 261.6772 0001137  67.1614 292.9498 15.08842042188857,important
STARLINK-3625,celestrak_active,2025-07-29T17:08:40.672457,51777,U,2022,17,K,2025,210.4332394,53.2174,261.3305,0.0001094,77.6842,282.4272,15.08836924,95.43774924214408,0,-2.36e-06,0.0,3.2439000000000006e-05,999,18889,1 51777U 22017K   25210.43323940 -.00000236  00000+0  32439-5 0  9994,2 51777  53.2174 261.3305 0001094  77.6842 282.4272 15.08836924188896,important
STARLINK-3615,celestrak_active,2025-07-29T17:08:40.672462,51778,U,2022,17,L,2025,210.43686988,53.2165,251.2179,0.0001124,86.4904,273.6216,15.08841512,95.43745904042969,0,3.1e-06,0.0,0.00037547000000000004,999,18885,1 51778U 22017L   25210.43686988  .00000310  00000+0  37547-4 0  9995,2 51778  53.2165 251.2179 0001124  86.4904 273.6216 15.08841512188850,important
STARLINK-3611,celestrak_active,2025-07-29T17:08:40.672468,51779,U,2022,17,M,2025,210.42956888,53.2168,261.4235,0.0001157,78.1827,281.9295,15.088376,95.43770648345455,0,-8.22e-06,0.0,-0.00033571,999,18886,1 51779U 22017M   25210.42956888 -.00000822  00000+0 -33571-4 0  9997,2 51779  53.2168 261.4235 0001157  78.1827 281.9295 15.08837600188861,important
STARLINK-3617,celestrak_active,2025-07-29T17:08:40.672473,51780,U,2022,17,N,2025,210.41388318,53.2168,261.4362,0.0001155,87.8531,272.2593,15.08840673,95.43751210900714,0,3.23e-06,0.0,0.00038347000000000007,999,18871,1 51780U 22017N   25210.41388318  .00000323  00000+0  38347-4 0  9995,2 51780  53.2168 261.4362 0001155  87.8531 272.2593 15.08840673188713,important
STARLINK-3580,celestrak_active,2025-07-29T17:08:40.672478,51781,U,2022,17,P,2025,210.41755969,53.2169,261.3909,0.0001026,84.9726,275.1383,15.08839429,95.4375907948254,0,-2e-08,0.0,0.00017931,999,18871,1 51781U 22017P   25210.41755969 -.00000002  00000+0  17931-4 0  9997,2 51781  53.2169 261.3909 0001026  84.9726 275.1383 15.08839429188718,important
STARLINK-3616,celestrak_active,2025-07-29T17:08:40.672485,51782,U,2022,17,Q,2025,210.45347496,53.2172,271.4226,0.0001051,94.7721,265.3392,15.088419,95.43743449860453,0,2.17e-05,0.0,0.0015436000000000002,999,18848,1 51782U 22017Q   25210.45347496  .00002170  00000+0  15436-3 0  9998,2 51782  53.2172 271.4226 0001051  94.7721 265.3392 15.08841900188481,important
STARLINK-3628,celestrak_active,2025-07-29T17:08:40.672491,51783,U,2022,17,R,2025,210.42220857,53.2168,261.4573,0.0001087,88.1288,271.9828,15.08836303,95.43778852197991,0,-3.59e-06,0.0,-4.4751000000000006e-05,999,18871,1 51783U 22017R   25210.42220857 -.00000359  00000+0 -44751-5 0  9990,2 51783  53.2168 261.4573 0001087  88.1288 271.9828 15.08836303188719,important
STARLINK-3632,celestrak_active,2025-07-29T17:08:40.672496,51784,U,2022,17,S,2025,210.43504162,53.2167,271.3507,0.0001093,86.0141,274.0976,15.08841793,95.43744126658082,0,1.11e-06,0.0,0.00025051,999,18857,1 51784U 22017S   25210.43504162  .00000111  00000+0  25051-4 0  9991,2 51784  53.2167 271.3507 0001093  86.0141 274.0976 15.08841793188579,important
STARLINK-3646,celestrak_active,2025-07-29T17:08:40.672501,51785,U,2022,17,T,2025,210.41115641,53.2169,261.4306,0.0001022,85.311,274.7999,15.0883966,95.43757618354226,0,6.15e-06,0.0,0.00056694,999,18871,1 51785U 22017T   25210.41115641  .00000615  00000+0  56694-4 0  9996,2 51785  53.2169 261.4306 0001022  85.3110 274.7999 15.08839660188717,important
STARLINK-3638,celestrak_active,2025-07-29T17:08:40.672507,51786,U,2022,17,U,2025,210.49392788,53.2171,271.0867,0.0001174,84.9,275.2126,15.08839441,95.43759003579758,0,1.04e-06,0.0,0.00024609,999,18858,1 51786U 22017U   25210.49392788  .00000104  00000+0  24609-4 0  9998,2 51786  53.2171 271.0867 0001174  84.9000 275.2126 15.08839441188581,important
STARLINK-3619,celestrak_active,2025-07-29T17:08:40.672512,51787,U,2022,17,V,2025,210.44240271,53.218,271.3186,0.0001031,86.005,274.106,15.08839421,95.43759130084393,0,4.01e-06,0.0,0.00043281000000000005,999,18857,1 51787U 22017V   25210.44240271  .00000401  00000+0  43281-4 0  9990,2 51787  53.2180 271.3186 0001031  86.0050 274.1060 15.08839421188571,important
STARLINK-3641,celestrak_active,2025-07-29T17:08:40.672518,51788,U,2022,17,W,2025,210.48288675,53.2168,271.1383,0.0001024,88.7252,271.3857,15.08837561,95.43770895030097,0,2.15e-06,0.0,0.0003162,999,19022,1 51788U 22017W   25210.48288675  .00000215  00000+0  31620-4 0  9992,2 51788  53.2168 271.1383 0001024  88.7252 271.3857 15.08837561190221,important
STARLINK-3639,celestrak_active,2025-07-29T17:08:40.672524,51789,U,2022,17,X,2025,210.43136439,53.2172,271.3686,0.0001134,85.1524,274.9598,15.08842568,95.43739224621345,0,3.57e-06,0.0,0.00040499000000000004,999,18857,1 51789U 22017X   25210.43136439  .00000357  00000+0  40499-4 0  9999,2 51789  53.2172 271.3686 0001134  85.1524 274.9598 15.08842568188579,important
STARLINK-3631,celestrak_active,2025-07-29T17:08:40.672532,51790,U,2022,17,Y,2025,210.47922282,53.2168,271.1499,0.0001228,75.4403,284.6725,15.08839227,95.43760357179526,0,3.26e-06,0.0,0.00038585,999,19027,1 51790U 22017Y   25210.47922282  .00000326  00000+0  38585-4 0  9993,2 51790  53.2168 271.1499 0001228  75.4403 284.6725 15.08839227190276,important
STARLINK-3602,celestrak_active,2025-07-29T17:08:40.672537,51791,U,2022,17,Z,2025,210.49024843,53.2171,271.1036,0.000126,87.3602,272.7534,15.08837541,95.43771021535048,0,1.124e-05,0.0,0.00088674,999,19022,1 51791U 22017Z   25210.49024843  .00001124  00000+0  88674-4 0  9993,2 51791  53.2171 271.1036 0001260  87.3602 272.7534 15.08837541190225,important
STARLINK-3626,celestrak_active,2025-07-29T17:08:40.672542,51792,U,2022,17,AA,2025,210.47185815,53.2171,271.1878,8.05e-05,87.1086,272.9998,15.08840817,95.4375030006893,0,-7.9e-07,0.0,0.00013085,999,19027,1 51792U 22017AA  25210.47185815 -.00000079  00000+0  13085-4 0  9992,2 51792  53.2171 271.1878 0000805  87.1086 272.9998 15.08840817190279,important
STARLINK-3633,celestrak_active,2025-07-29T17:08:40.672548,51793,U,2022,17,AB,2025,210.48752318,53.217,271.1274,0.0001084,89.1086,271.0031,15.08839124,95.43761008678617,0,7.1e-07,0.0,0.00022573,999,19027,1 51793U 22017AB  25210.48752318  .00000071  00000+0  22573-4 0  9995,2 51793  53.2170 271.1274 0001084  89.1086 271.0031 15.08839124190278,important
STARLINK-3573,celestrak_active,2025-07-29T17:08:40.672553,51794,U,2022,17,AC,2025,210.46448688,53.2177,271.2198,0.0001127,80.3292,279.7828,15.08837228,95.43773001337955,0,-4.21e-06,0.0,-8.389500000000001e-05,999,19022,1 51794U 22017AC  25210.46448688 -.00000421  00000+0 -83895-5 0  9992,2 51794  53.2177 271.2198 0001127  80.3292 279.7828 15.08837228190229,important
STARLINK-3586,celestrak_active,2025-07-29T17:08:40.672559,51795,U,2022,17,AD,2025,210.42034978,53.2174,271.62,0.0001011,89.9533,270.1575,15.0883723,95.43772988687455,0,-2.37e-06,0.0,3.1862e-05,999,19021,1 51795U 22017AD  25210.42034978 -.00000237  00000+0  31862-5 0  9993,2 51795  53.2174 271.6200 0001011  89.9533 270.1575 15.08837230190216,important
STARLINK-3634,celestrak_active,2025-07-29T17:08:40.672564,51798,U,2022,17,AG,2025,210.44976467,53.2171,271.2847,0.0001037,86.1473,273.9637,15.08838412,95.43765512247576,0,-6.2e-07,0.0,0.00014175,999,19026,1 51798U 22017AG  25210.44976467 -.00000062  00000+0  14175-4 0  9999,2 51798  53.2171 271.2847 0001037  86.1473 273.9637 15.08838412190267,important
STARLINK-3637,celestrak_active,2025-07-29T17:08:40.672570,51799,U,2022,17,AH,2025,210.4608075,53.2173,271.2349,0.0001153,89.2946,270.8178,15.08836055,95.43780420862225,0,-4.8e-06,0.0,-0.00012089000000000002,999,19022,1 51799U 22017AH  25210.46080750 -.00000480  00000+0 -12089-4 0  9990,2 51799  53.2173 271.2349 0001153  89.2946 270.8178 15.08836055190228,important
STARLINK-3592,celestrak_active,2025-07-29T17:08:40.672575,51801,U,2022,17,AK,2025,210.45714473,53.2173,271.2518,0.0001121,88.6502,271.4618,15.08827082,95.43837177758186,0,1.645e-05,0.0,0.0012148,999,19022,1 51801U 22017AK  25210.45714473  .00001645  00000+0  12148-3 0  9996,2 51801  53.2173 271.2518 0001121  88.6502 271.4618 15.08827082190222,important
STARLINK-3557,celestrak_active,2025-07-29T17:08:40.672581,51802,U,2022,17,AL,2025,210.36749259,53.1989,253.5671,0.000442,17.9979,342.1183,15.40543613,93.47349778665435,0,0.00069991,0.0,0.016912,999,19046,1 51802U 22017AL  25210.36749259  .00069991  00000+0  16912-2 0  9997,2 51802  53.1989 253.5671 0004420  17.9979 342.1183 15.40543613190468,important
